start=new Date('2022-10-03T00:00:00.000Z').valueOf();
sats=[{"REV_AT_EPOCH":"3157","PERIAPSIS":"538.380","CENTER_NAME":"EARTH","MEAN_ANOMALY":"316.5586","GP_ID":"214026855","ECCENTRICITY":"0.00019990","MEAN_MOTION_DOT":"-0.00000083","CLASSIFICATION_TYPE":"U","INCLINATION":"53.2166","MEAN_MOTION":"15.08834288","TLE_LINE1":"1 52121U 22029AK  22275.44512816 -.00000083  00000-0  12889-4 0  9999","ARG_OF_PERICENTER":"43.5564","FILE":"3589746","ELEMENT_SET_NO":"999","EPOCH":"2022-10-02T10:40:59.073024","EPHEMERIS_TYPE":"0","BSTAR":"0.00001288900000","MEAN_ELEMENT_THEORY":"SGP4","SEMIMAJOR_AXIS":"6917.898","MEAN_MOTION_DDOT":"0.0000000000000","DECAY_DATE":null,"LAUNCH_DATE":"2022-03-19","TIME_SYSTEM":"UTC","SITE":"AFETR","REF_FRAME":"TEME","OBJECT_ID":"2022-029AK","TLE_LINE2":"2 52121  53.2166 299.6369 0001999  43.5564 316.5586 15.08834288 31572","PERIOD":"95.438","RCS_SIZE":"LARGE","APOAPSIS":"541.146","OBJECT_NAME":"STARLINK-3678","RA_OF_ASC_NODE":"299.6369","COUNTRY_CODE":"US","OBJECT_TYPE":"PAYLOAD","NORAD_CAT_ID":"52121"},{"GP_ID":"214051289","PERIAPSIS":"538.300","REV_AT_EPOCH":"3149","MEAN_ANOMALY":"315.2109","CENTER_NAME":"EARTH","ARG_OF_PERICENTER":"44.9053","TLE_LINE1":"1 52122U 22029AL  22275.79749248  .00000597  00000-0  55594-4 0  9998","FILE":"3589751","ELEMENT_SET_NO":"999","EPHEMERIS_TYPE":"0","EPOCH":"2022-10-02T19:08:23.350272","BSTAR":"0.00005559400000","ECCENTRICITY":"0.00021130","MEAN_MOTION_DOT":"0.00000597","CLASSIFICATION_TYPE":"U","INCLINATION":"53.2188","MEAN_MOTION":"15.08834810","REF_FRAME":"TEME","SITE":"AFETR","OBJECT_ID":"2022-029AL","TLE_LINE2":"2 52122  53.2188 308.0612 0002113  44.9053 315.2109 15.08834810 31499","PERIOD":"95.438","SEMIMAJOR_AXIS":"6917.896","MEAN_ELEMENT_THEORY":"SGP4","DECAY_DATE":null,"MEAN_MOTION_DDOT":"0.0000000000000","LAUNCH_DATE":"2022-03-19","TIME_SYSTEM":"UTC","OBJECT_TYPE":"PAYLOAD","NORAD_CAT_ID":"52122","APOAPSIS":"541.223","RCS_SIZE":"LARGE","COUNTRY_CODE":"US","RA_OF_ASC_NODE":"308.0612","OBJECT_NAME":"STARLINK-3726"},{"OBJECT_TYPE":"PAYLOAD","NORAD_CAT_ID":"52123","OBJECT_NAME":"STARLINK-3725","RA_OF_ASC_NODE":"298.1929","COUNTRY_CODE":"US","RCS_SIZE":"LARGE","APOAPSIS":"541.052","OBJECT_ID":"2022-029AM","SITE":"AFETR","REF_FRAME":"TEME","PERIOD":"95.438","TLE_LINE2":"2 52123  53.2175 298.1929 0001845  53.3782 306.7380 15.08830157 31632","MEAN_MOTION_DDOT":"0.0000000000000","DECAY_DATE":null,"MEAN_ELEMENT_THEORY":"SGP4","SEMIMAJOR_AXIS":"6917.910","TIME_SYSTEM":"UTC","LAUNCH_DATE":"2022-03-19","FILE":"3589751","ARG_OF_PERICENTER":"53.3782","TLE_LINE1":"1 52123U 22029AM  22275.76897246 -.00002252  00000-0 -12345-3 0  9996","BSTAR":"-0.00012345000000","ELEMENT_SET_NO":"999","EPHEMERIS_TYPE":"0","EPOCH":"2022-10-02T18:27:19.220544","ECCENTRICITY":"0.00018450","MEAN_MOTION":"15.08830157","INCLINATION":"53.2175","MEAN_MOTION_DOT":"-0.00002252","CLASSIFICATION_TYPE":"U","GP_ID":"214050056","REV_AT_EPOCH":"3163","PERIAPSIS":"538.499","CENTER_NAME":"EARTH","MEAN_ANOMALY":"306.7380"},{"GP_ID":"214050305","PERIAPSIS":"538.285","REV_AT_EPOCH":"3149","MEAN_ANOMALY":"328.5427","CENTER_NAME":"EARTH","FILE":"3589751","TLE_LINE1":"1 52124U 22029AN  22275.79012771  .00003224  00000-0  22061-3 0  9996","ARG_OF_PERICENTER":"31.5694","BSTAR":"0.00022061000000","EPHEMERIS_TYPE":"0","ELEMENT_SET_NO":"999","EPOCH":"2022-10-02T18:57:47.034144","ECCENTRICITY":"0.00021470","MEAN_MOTION":"15.08831785","INCLINATION":"53.2176","CLASSIFICATION_TYPE":"U","MEAN_MOTION_DOT":"0.00003224","OBJECT_ID":"2022-029AN","REF_FRAME":"TEME","SITE":"AFETR","PERIOD":"95.438","TLE_LINE2":"2 52124  53.2176 308.0961 0002147  31.5694 328.5427 15.08831785 31493","DECAY_DATE":null,"MEAN_MOTION_DDOT":"0.0000000000000","MEAN_ELEMENT_THEORY":"SGP4","SEMIMAJOR_AXIS":"6917.905","TIME_SYSTEM":"UTC","LAUNCH_DATE":"2022-03-19","OBJECT_TYPE":"PAYLOAD","NORAD_CAT_ID":"52124","COUNTRY_CODE":"US","RA_OF_ASC_NODE":"308.0961","OBJECT_NAME":"STARLINK-3684","APOAPSIS":"541.256","RCS_SIZE":"LARGE"},{"LAUNCH_DATE":"2022-03-19","TIME_SYSTEM":"UTC","SEMIMAJOR_AXIS":"6917.910","MEAN_ELEMENT_THEORY":"SGP4","MEAN_MOTION_DDOT":"0.0000000000000","DECAY_DATE":null,"TLE_LINE2":"2 52125  53.2167 298.2015 0001836  53.2042 306.9118 15.08830282 31630","PERIOD":"95.438","SITE":"AFETR","REF_FRAME":"TEME","OBJECT_ID":"2022-029AP","RCS_SIZE":"LARGE","APOAPSIS":"541.045","OBJECT_NAME":"STARLINK-3727","RA_OF_ASC_NODE":"298.2015","COUNTRY_CODE":"US","NORAD_CAT_ID":"52125","OBJECT_TYPE":"PAYLOAD","CENTER_NAME":"EARTH","MEAN_ANOMALY":"306.9118","REV_AT_EPOCH":"3163","PERIAPSIS":"538.505","GP_ID":"214050553","MEAN_MOTION_DOT":"-0.00001935","CLASSIFICATION_TYPE":"U","INCLINATION":"53.2167","MEAN_MOTION":"15.08830282","ECCENTRICITY":"0.00018360","ELEMENT_SET_NO":"999","EPOCH":"2022-10-02T18:22:01.400736","EPHEMERIS_TYPE":"0","BSTAR":"-0.00010352000000","TLE_LINE1":"1 52125U 22029AP  22275.76529399 -.00001935  00000-0 -10352-3 0  9992","ARG_OF_PERICENTER":"53.2042","FILE":"3589751"},{"RA_OF_ASC_NODE":"298.1684","OBJECT_NAME":"STARLINK-3732","COUNTRY_CODE":"US","RCS_SIZE":"LARGE","APOAPSIS":"540.808","OBJECT_TYPE":"PAYLOAD","NORAD_CAT_ID":"52126","MEAN_MOTION_DDOT":"0.0000000000000","DECAY_DATE":null,"SEMIMAJOR_AXIS":"6917.926","MEAN_ELEMENT_THEORY":"SGP4","TIME_SYSTEM":"UTC","LAUNCH_DATE":"2022-03-19","OBJECT_ID":"2022-029AQ","SITE":"AFETR","REF_FRAME":"TEME","PERIOD":"95.439","TLE_LINE2":"2 52126  53.2158 298.1684 0001469  54.8725 305.2404 15.08824964 31628","ECCENTRICITY":"0.00014690","MEAN_MOTION":"15.08824964","INCLINATION":"53.2158","MEAN_MOTION_DOT":"-0.00000799","CLASSIFICATION_TYPE":"U","FILE":"3589751","ARG_OF_PERICENTER":"54.8725","TLE_LINE1":"1 52126U 22029AQ  22275.77264771 -.00000799  00000-0 -32155-4 0  9997","BSTAR":"-0.00003215500000","ELEMENT_SET_NO":"999","EPHEMERIS_TYPE":"0","EPOCH":"2022-10-02T18:32:36.762144","REV_AT_EPOCH":"3162","PERIAPSIS":"538.775","CENTER_NAME":"EARTH","MEAN_ANOMALY":"305.2404","GP_ID":"214050790"},{"PERIOD":"95.438","TLE_LINE2":"2 52127  53.2154 298.2108 0002054  41.9595 318.1554 15.08831700 31625","OBJECT_ID":"2022-029AR","REF_FRAME":"TEME","SITE":"AFETR","TIME_SYSTEM":"UTC","LAUNCH_DATE":"2022-03-19","DECAY_DATE":null,"MEAN_MOTION_DDOT":"0.0000000000000","MEAN_ELEMENT_THEORY":"SGP4","SEMIMAJOR_AXIS":"6917.906","NORAD_CAT_ID":"52127","OBJECT_TYPE":"PAYLOAD","COUNTRY_CODE":"US","OBJECT_NAME":"STARLINK-3715","RA_OF_ASC_NODE":"298.2108","APOAPSIS":"541.192","RCS_SIZE":"LARGE","GP_ID":"214049557","MEAN_ANOMALY":"318.1554","CENTER_NAME":"EARTH","PERIAPSIS":"538.350","REV_AT_EPOCH":"3162","BSTAR":"-0.00000222880000","EPHEMERIS_TYPE":"0","ELEMENT_SET_NO":"999","EPOCH":"2022-10-02T18:16:42.567456","FILE":"3589751","ARG_OF_PERICENTER":"41.9595","TLE_LINE1":"1 52127U 22029AR  22275.76160379 -.00000324  00000-0 -22288-5 0  9997","MEAN_MOTION":"15.08831700","INCLINATION":"53.2154","MEAN_MOTION_DOT":"-0.00000324","CLASSIFICATION_TYPE":"U","ECCENTRICITY":"0.00020540"},{"NORAD_CAT_ID":"52129","OBJECT_TYPE":"PAYLOAD","APOAPSIS":"541.037","RCS_SIZE":"LARGE","COUNTRY_CODE":"US","RA_OF_ASC_NODE":"299.1368","OBJECT_NAME":"STARLINK-3661","TLE_LINE2":"2 52129  53.2171 299.1368 0001780  50.8522 309.2629 15.08820225 31600","PERIOD":"95.439","REF_FRAME":"TEME","SITE":"AFETR","OBJECT_ID":"2022-029AT","LAUNCH_DATE":"2022-03-19","TIME_SYSTEM":"UTC","SEMIMAJOR_AXIS":"6917.941","MEAN_ELEMENT_THEORY":"SGP4","DECAY_DATE":null,"MEAN_MOTION_DDOT":"0.0000000000000","ELEMENT_SET_NO":"999","EPHEMERIS_TYPE":"0","EPOCH":"2022-10-02T13:19:58.253376","BSTAR":"-0.00019232000000","ARG_OF_PERICENTER":"50.8522","TLE_LINE1":"1 52129U 22029AT  22275.55553534 -.00003346  00000-0 -19232-3 0  9995","FILE":"3589751","MEAN_MOTION_DOT":"-0.00003346","CLASSIFICATION_TYPE":"U","INCLINATION":"53.2171","MEAN_MOTION":"15.08820225","ECCENTRICITY":"0.00017800","GP_ID":"214049806","MEAN_ANOMALY":"309.2629","CENTER_NAME":"EARTH","PERIAPSIS":"538.574","REV_AT_EPOCH":"3160"},{"ECCENTRICITY":"0.00017030","INCLINATION":"53.2194","MEAN_MOTION":"15.08822251","CLASSIFICATION_TYPE":"U","MEAN_MOTION_DOT":"-0.00000592","FILE":"3589474","ARG_OF_PERICENTER":"54.1051","TLE_LINE1":"1 52131U 22029AV  22275.35313743 -.00000592  00000-0 -19117-4 0  9995","BSTAR":"-0.00001911700000","ELEMENT_SET_NO":"999","EPHEMERIS_TYPE":"0","EPOCH":"2022-10-02T08:28:31.073952","REV_AT_EPOCH":"3157","PERIAPSIS":"538.622","CENTER_NAME":"EARTH","MEAN_ANOMALY":"306.0099","GP_ID":"214019011","OBJECT_NAME":"STARLINK-3711","RA_OF_ASC_NODE":"300.0518","COUNTRY_CODE":"US","RCS_SIZE":"LARGE","APOAPSIS":"540.978","OBJECT_TYPE":"PAYLOAD","NORAD_CAT_ID":"52131","MEAN_MOTION_DDOT":"0.0000000000000","DECAY_DATE":null,"MEAN_ELEMENT_THEORY":"SGP4","SEMIMAJOR_AXIS":"6917.935","TIME_SYSTEM":"UTC","LAUNCH_DATE":"2022-03-19","OBJECT_ID":"2022-029AV","SITE":"AFETR","REF_FRAME":"TEME","PERIOD":"95.439","TLE_LINE2":"2 52131  53.2194 300.0518 0001703  54.1051 306.0099 15.08822251 31579"},{"MEAN_MOTION_DOT":"0.00000193","CLASSIFICATION_TYPE":"U","INCLINATION":"53.2171","MEAN_MOTION":"15.08838706","ECCENTRICITY":"0.00020060","ELEMENT_SET_NO":"999","EPHEMERIS_TYPE":"0","EPOCH":"2022-10-02T18:11:24.243072","BSTAR":"0.00003024400000","ARG_OF_PERICENTER":"37.1904","TLE_LINE1":"1 52132U 22029AW  22275.75791948  .00000193  00000-0  30244-4 0  9996","FILE":"3589751","CENTER_NAME":"EARTH","MEAN_ANOMALY":"322.9227","REV_AT_EPOCH":"3163","PERIAPSIS":"538.362","GP_ID":"214051290","RCS_SIZE":"LARGE","APOAPSIS":"541.137","RA_OF_ASC_NODE":"298.2379","OBJECT_NAME":"STARLINK-3718","COUNTRY_CODE":"US","NORAD_CAT_ID":"52132","OBJECT_TYPE":"PAYLOAD","LAUNCH_DATE":"2022-03-19","TIME_SYSTEM":"UTC","MEAN_ELEMENT_THEORY":"SGP4","SEMIMAJOR_AXIS":"6917.884","MEAN_MOTION_DDOT":"0.0000000000000","DECAY_DATE":null,"TLE_LINE2":"2 52132  53.2171 298.2379 0002006  37.1904 322.9227 15.08838706 31632","PERIOD":"95.438","SITE":"AFETR","REF_FRAME":"TEME","OBJECT_ID":"2022-029AW"}];
